[{"OBJECT_NAME":"APRIZESAT 6","OBJECT_ID":"2011-044F","EPOCH":"2026-03-09T16:26:10.012704","MEAN_MOTION":14.76752527,"ECCENTRICITY":0.00442555,"INCLINATION":98.2416,"RA_OF_ASC_NODE":337.1377,"ARG_OF_PERICENTER":45.5193,"MEAN_ANOMALY":11.155,"EPHEMERIS_TYPE":0,"CLASSIFICATION_TYPE":"U","NORAD_CAT_ID":37793,"ELEMENT_SET_NO":999,"REV_AT_EPOCH":78246,"BSTAR":0.0001848407,"MEAN_MOTION_DOT":1.26e-5,"MEAN_MOTION_DDOT":0},{"OBJECT_NAME":"CALIPSO","OBJECT_ID":"2006-016B","EPOCH":"2026-03-10T00:05:36.967776","MEAN_MOTION":14.69138148,"ECCENTRICITY":9.898e-5,"INCLINATION":98.4531,"RA_OF_ASC_NODE":81.2744,"ARG_OF_PERICENTER":107.2162,"MEAN_ANOMALY":252.9151,"EPHEMERIS_TYPE":0,"CLASSIFICATION_TYPE":"U","NORAD_CAT_ID":29108,"ELEMENT_SET_NO":999,"REV_AT_EPOCH":5849,"BSTAR":0.00027966162,"MEAN_MOTION_DOT":1.592e-5,"MEAN_MOTION_DDOT":0}]
