CALIPSO                 
1 29108U 06016B   26069.00390009  .00001592  00000+0  27966-3 0  9996
2 29108  98.4531  81.2744 0000989 107.2162 252.9151 14.69138148 58499
APRIZESAT 6             
1 37793U 11044F   26068.68483811  .00001260  00000+0  18484-3 0  9996
2 37793  98.2416 337.1377 0044255  45.5193  11.1550 14.76752527782465
